FENGYUN 1C              
1 25730U 99025A   24318.12828058  .00004962  00000+0  22211-2 0  9994
2 25730  98.9279  12.7066 0015358 112.6157 277.2059 14.22962651315188